[{"OBJECT_NAME":"OBJECT J","OBJECT_ID":"2023-085J","EPOCH":"2026-03-09T22:47:59.920512","MEAN_MOTION":15.31507187,"ECCENTRICITY":0.00067028,"INCLINATION":97.4828,"RA_OF_ASC_NODE":180.1819,"ARG_OF_PERICENTER":41.7877,"MEAN_ANOMALY":318.3875,"EPHEMERIS_TYPE":0,"CLASSIFICATION_TYPE":"U","NORAD_CAT_ID":57012,"ELEMENT_SET_NO":999,"REV_AT_EPOCH":15156,"BSTAR":0.00064525349,"MEAN_MOTION_DOT":0.00019595,"MEAN_MOTION_DDOT":0},{"OBJECT_NAME":"STARLINK-31441","OBJECT_ID":"2024-117A","EPOCH":"2026-03-09T22:11:59.474688","MEAN_MOTION":15.30194429,"ECCENTRICITY":0.00012231,"INCLINATION":53.1617,"RA_OF_ASC_NODE":35.9495,"ARG_OF_PERICENTER":77.0731,"MEAN_ANOMALY":283.0406,"EPHEMERIS_TYPE":0,"CLASSIFICATION_TYPE":"U","NORAD_CAT_ID":60091,"ELEMENT_SET_NO":999,"REV_AT_EPOCH":9692,"BSTAR":3.5308859e-5,"MEAN_MOTION_DOT":6.87e-6,"MEAN_MOTION_DDOT":0}]
